{
    "links": {
        "self": "http://www.neowsapp.com/rest/v1/neo/54054630?api_key=iIulBulltgU6a56xZRHN4H3l9WmuAYTsLGpBGhQ2"
    },
    "id": "54054630",
    "neo_reference_id": "54054630",
    "name": "(2020 SS4)",
    "designation": "2020 SS4",
    "nasa_jpl_url": "http://ssd.jpl.nasa.gov/sbdb.cgi?sstr=54054630",
    "absolute_magnitude_h": 24.291,
    "estimated_diameter": {
        "kilometers": {
            "estimated_diameter_min": 0.0368429992,
            "estimated_diameter_max": 0.0823834507
        },
        "meters": {
            "estimated_diameter_min": 36.8429991959,
            "estimated_diameter_max": 82.383450697
        },
        "miles": {
            "estimated_diameter_min": 0.0228931713,
            "estimated_diameter_max": 0.0511906871
        },
        "feet": {
            "estimated_diameter_min": 120.8759854819,
            "estimated_diameter_max": 270.2869203848
        }
    },
    "is_potentially_hazardous_asteroid": false,
    "close_approach_data": [
        {
            "close_approach_date": "2008-08-03",
            "close_approach_date_full": "2008-Aug-03 10:09",
            "epoch_date_close_approach": 1217758140000,
            "relative_velocity": {
                "kilometers_per_second": "18.6729662106",
                "kilometers_per_hour": "67222.6783583245",
                "miles_per_hour": "41769.5581165934"
            },
            "miss_distance": {
                "astronomical": "0.3540497602",
                "lunar": "137.7253567178",
                "kilometers": "52965089.999930774",
                "miles": "32910980.8234977212"
            },
            "orbiting_body": "Earth"
        },
        {
            "close_approach_date": "2012-08-20",
            "close_approach_date_full": "2012-Aug-20 19:03",
            "epoch_date_close_approach": 1345489380000,
            "relative_velocity": {
                "kilometers_per_second": "12.4031926641",
                "kilometers_per_hour": "44651.4935907017",
                "miles_per_hour": "27744.7016702891"
            },
            "miss_distance": {
                "astronomical": "0.1480054806",
                "lunar": "57.5741319534",
                "kilometers": "22141304.646086322",
                "miles": "13757968.7415903636"
            },
            "orbiting_body": "Earth"
        },
        {
            "close_approach_date": "2020-09-24",
            "close_approach_date_full": "2020-Sep-24 18:14",
            "epoch_date_close_approach": 1600971240000,
            "relative_velocity": {
                "kilometers_per_second": "8.6211983788",
                "kilometers_per_hour": "31036.3141636703",
                "miles_per_hour": "19284.7586535317"
            },
            "miss_distance": {
                "astronomical": "0.0129901426",
                "lunar": "5.0531654714",
                "kilometers": "1943297.663956262",
                "miles": "1207509.1754379356"
            },
            "orbiting_body": "Earth"
        },
        {
            "close_approach_date": "2024-10-27",
            "close_approach_date_full": "2024-Oct-27 19:02",
            "epoch_date_close_approach": 1730055720000,
            "relative_velocity": {
                "kilometers_per_second": "12.1352726683",
                "kilometers_per_hour": "43686.9816057306",
                "miles_per_hour": "27145.3914316274"
            },
            "miss_distance": {
                "astronomical": "0.1480251121",
                "lunar": "57.5817686069",
                "kilometers": "22144241.476671227",
                "miles": "13759793.6034958526"
            },
            "orbiting_body": "Earth"
        },
        {
            "close_approach_date": "2028-11-11",
            "close_approach_date_full": "2028-Nov-11 01:35",
            "epoch_date_close_approach": 1857519300000,
            "relative_velocity": {
                "kilometers_per_second": "17.1970166302",
                "kilometers_per_hour": "61909.2598688435",
                "miles_per_hour": "38468.0065001711"
            },
            "miss_distance": {
                "astronomical": "0.3042489851",
                "lunar": "118.3528552039",
                "kilometers": "45515000.120621737",
                "miles": "28281709.6346524906"
            },
            "orbiting_body": "Earth"
        }
    ],
    "orbital_data": {
        "orbit_id": "9",
        "orbit_determination_date": "2020-10-09 08:12:37",
        "first_observation_date": "2020-09-23",
        "last_observation_date": "2020-10-09",
        "data_arc_in_days": 16,
        "observations_used": 83,
        "orbit_uncertainty": "7",
        "minimum_orbit_intersection": ".0122019",
        "jupiter_tisserand_invariant": "3.168",
        "epoch_osculation": "2459000.5",
        "eccentricity": ".5986614801044089",
        "semi_major_axis": "2.526618112462085",
        "inclination": "6.607668197873186",
        "ascending_node_longitude": "179.0201699210988",
        "orbital_period": "1466.92474489551",
        "perihelion_distance": "1.014029173596925",
        "perihelion_argument": "184.8749497759955",
        "aphelion_distance": "4.039207051327245",
        "perihelion_time": "2459119.056413712861",
        "mean_anomaly": "330.9049090042652",
        "mean_motion": ".245411362275195",
        "equinox": "J2000",
        "orbit_class": {
            "orbit_class_type": "APO",
            "orbit_class_description": "Near-Earth asteroid orbits which cross the Earth’s orbit similar to that of 1862 Apollo",
            "orbit_class_range": "a (semi-major axis) > 1.0 AU; q (perihelion) < 1.017 AU"
        }
    },
    "is_sentry_object": false
}